SatCatId,ObjectName,LaunchYear,OrbitalPeriod,LaunchMass,StatusCode,Inclination,Status,UcsData,OrbitClassEstimated,LaunchSiteCountry,Owner,UseType,Purpose,LaunchVehicleClass,TLE1,TLE2,MeanMotion,Eccentricity,OrbitClass
8585,CTS,1976,1435.57,-1.0,UNK,5.04,Inactive,0,GSO,USA,Canada,Unknown,Unknown,Unknown,1 08585U 76004A   25104.02085256 -.00000262  00000+0  00000+0 0  9992,2 08585   5.0367 278.1783 0011358 261.0194 319.7347  1.00308433117988,1.00308433,0.0011358,GSO
24971,IRS-1D,1997,100.33,-1.0,-,98.81,Inactive,0,LEO,India,India,Unknown,Unknown,Unknown,1 24971U 97057A   25103.87323852  .00000573  00000+0  21266-3 0  9994,2 24971  98.8058  83.5074 0053289  52.8188 307.7844 14.35243789441029,14.35243789,0.0053289,LEO
8591,COSMOS 789,1976,104.87,-1.0,UNK,82.98,Inactive,0,LEO,Russia,Russia/USSR,Unknown,Unknown,Unknown,1 08591U 76005A   25103.71954138  .00000096  00000+0  87425-4 0  9994,2 08591  82.9757 161.2497 0029286 334.5024 159.9071 13.73163804466207,13.73163804,0.0029286,LEO
16791,COSMOS 1758,1986,94.71,-1.0,UNK,82.46,Inactive,0,LEO,Russia,Russia/USSR,Unknown,Unknown,Unknown,1 16791U 86046A   25104.22349593  .00009447  00000+0  42956-3 0  9999,2 16791  82.4584 114.2443 0017736  51.3398 308.9420 15.20461309116217,15.20461309,0.0017736,LEO
8601,MOLNIYA 1-32,1976,719.89,-1.0,UNK,63.64,Inactive,0,MEO,Kazakhstan,Russia/USSR,Unknown,Unknown,Unknown,1 08601U 76006A   25099.40247619  .00001260  00000+0  00000+0 0  9999,2 08601  63.6413 178.2971 6726766 279.8469  15.6665  2.00030957 73207,2.00030957,0.6726766,MEO
16798,COSMOS 1759,1986,104.72,-1.0,UNK,82.92,Inactive,0,LEO,Russia,Russia/USSR,Unknown,Unknown,Unknown,1 16798U 86047A   25104.55219731  .00000107  00000+0  95572-4 0  9990,2 16798  82.9199 147.0718 0024791  13.0412 152.1890 13.75155836948026,13.75155836,0.0024791,LEO
8607,COSMOS 791,1976,114.74,-1.0,UNK,74.06,Inactive,0,LEO,Russia,Russia/USSR,Unknown,Unknown,Unknown,1 08607U 76008A   25104.14205965  .00000012  00000+0  17230-3 0  9994,2 08607  74.0580 347.5092 0054494 155.7681 358.9774 12.55037217254733,12.55037217,0.0054494,LEO
8608,COSMOS 792,1976,115.16,-1.0,UNK,74.06,Inactive,0,LEO,Russia,Russia/USSR,Unknown,Unknown,Unknown,1 08608U 76008B   25103.63461671  .00000010  00000+0  16632-3 0  9999,2 08608  74.0563 195.0479 0034398  49.7855  59.9709 12.50413022246202,12.50413022,0.0034398,LEO
8609,COSMOS 793,1976,114.96,-1.0,UNK,74.05,Inactive,0,LEO,Russia,Russia/USSR,Unknown,Unknown,Unknown,1 08609U 76008C   25103.74918654 -.00000014  00000+0  13261-4 0  9991,2 08609  74.0518  95.4250 0047204 290.5406 243.4085 12.52638098250162,12.52638098,0.0047204,LEO
8610,COSMOS 794,1976,115.37,-1.0,UNK,74.05,Inactive,0,LEO,Russia,Russia/USSR,Unknown,Unknown,Unknown,1 08610U 76008D   25103.86617956 -.00000009  00000+0  43205-4 0  9992,2 08610  74.0530 295.1060 0026864 182.6968 281.9775 12.48149886242351,12.48149886,0.0026864,LEO
8611,COSMOS 795,1976,115.59,-1.0,UNK,74.06,Inactive,0,LEO,Russia,Russia/USSR,Unknown,Unknown,Unknown,1 08611U 76008E   25103.80512896 -.00000013  00000+0  18018-4 0  9993,2 08611  74.0578  40.2217 0020023 326.3519  33.6257 12.45786418237757,12.45786418,0.0020023,LEO
8612,COSMOS 796,1976,115.83,-1.0,UNK,74.05,Inactive,0,LEO,Russia,Russia/USSR,Unknown,Unknown,Unknown,1 08612U 76008F   25103.59609155  .00000018  00000+0  23717-3 0  9990,2 08612  74.0538 155.9255 0027188 132.7372 339.0028 12.43161103233150,12.43161103,0.0027188,LEO
8613,COSMOS 797,1976,116.07,-1.0,UNK,74.05,Inactive,0,LEO,Russia,Russia/USSR,Unknown,Unknown,Unknown,1 08613U 76008G   25104.21323859 -.00000016  00000+0 -51759-5 0  9994,2 08613  74.0526 264.1486 0032330 281.1296 252.3920 12.40681666229001,12.40681666,0.003233,LEO
8614,COSMOS 798,1976,116.34,-1.0,UNK,74.06,Inactive,0,LEO,Russia,Russia/USSR,Unknown,Unknown,Unknown,1 08614U 76008H   25103.78808804 -.00000006  00000+0  69709-4 0  9995,2 08614  74.0584  33.0194 0047156  73.2344 315.8120 12.37752735223453,12.37752735,0.0047156,LEO
8620,INTELSAT 4A-F2,1976,1444.42,-1.0,-,8.82,Inactive,0,GSO,USA,INTELSAT,Unknown,Unknown,Unknown,1 08620U 76010A   25103.82033267 -.00000130  00000+0  00000+0 0  9995,2 08620   8.8207 307.0118 0004911 293.8061 254.7661  0.99693775616332,0.99693775,0.0004911,GSO
25004,ECHOSTAR 3,1997,1456.43,-1.0,-,8.52,Inactive,0,GSO,USA,USA,Unknown,Unknown,Unknown,1 25004U 97059A   25103.87002825  .00000054  00000+0  00000+0 0  9991,2 25004   8.5224  59.8731 0016199 331.2364  12.4452  0.98872083100357,0.98872083,0.0016199,GSO
25010,APSTAR-2R (TELSTAR 10),1997,1451.41,-1.0,-,9.8,Inactive,0,GSO,PRC,China,Unknown,Unknown,Unknown,1 25010U 97062A   25103.17342137 -.00000241  00000+0  00000+0 0  9997,2 25010   9.8026  51.5811 0010892 288.8615 260.3562  0.99213616100264,0.99213616,0.0010892,GSO
25023,MAQSAT H,1997,463.32,-1.0,UNK,7.57,Inactive,0,MEO,French Guiana,ESA,Unknown,Unknown,Unknown,1 25023U 97066A   25103.60753751 -.00000003  00000+0  20480-3 0  9995,2 25023   7.5694 217.4964 6493148  46.1586 256.9076  3.10798724310531,3.10798724,0.6493148,MEO
25024,MAQSAT B,1997,466.12,-1.0,UNK,7.6,Inactive,0,MEO,French Guiana,ESA,Unknown,Unknown,Unknown,1 25024U 97066B   25103.80489604  .00000035  00000+0  50975-3 0  9997,2 25024   7.5964 221.5429 6515493  37.0485  81.8201  3.08932102309764,3.08932102,0.6515493,MEO
25025,TEAMSAT,1997,467.52,-1.0,-,7.79,Inactive,0,MEO,French Guiana,ESA,Unknown,Unknown,Unknown,1 25025U 97066C   25104.27549890 -.00000003  00000+0  60971-3 0  9997,2 25025   7.7839 255.1640 6518731 330.6128 258.8955  3.08007860309036,3.0800786,0.6518731,MEO
8645,COSMOS 800,1976,104.94,-1.0,UNK,82.97,Inactive,0,LEO,Russia,Russia/USSR,Unknown,Unknown,Unknown,1 08645U 76011A   25104.40705247  .00000082  00000+0  73516-4 0  9994,2 08645  82.9708  71.3936 0022757  91.6309  78.8058 13.72160746462835,13.72160746,0.0022757,LEO
16849,COSMOS 1761,1986,717.12,-1.0,UNK,70.12,Inactive,0,MEO,Russia,Russia/USSR,Unknown,Unknown,Unknown,1 16849U 86050A   25103.84092148 -.00000623  00000+0  00000+0 0  9994,2 16849  70.1168  66.4229 5760318  15.6356   1.4043  2.00801325283981,2.00801325,0.5760318,MEO
25042,IRIDIUM 39,1997,99.37,-1.0,-,86.39,Inactive,0,LEO,USA,USA,Unknown,Unknown,Unknown,1 25042U 97069D   25103.91343531  .00001703  00000+0  44200-3 0  9997,2 25042  86.3913 238.6695 0018804 155.8976 204.3113 14.49107538439659,14.49107538,0.0018804,LEO
25043,IRIDIUM 38,1997,100.14,-1.0,-,86.39,Inactive,0,LEO,USA,USA,Unknown,Unknown,Unknown,1 25043U 97069E   25104.36316895  .00001072  00000+0  34786-3 0  9998,2 25043  86.3916 260.0053 0001204  28.4598 331.6665 14.38039631437044,14.38039631,0.0001204,LEO
25045,KUPON,1997,1436.02,-1.0,UNK,14.59,Inactive,0,GSO,Kazakhstan,Russia/USSR,Unknown,Unknown,Unknown,1 25045U 97070A   25103.27350391  .00000040  00000+0  00000+0 0  9992,2 25045  14.5879 357.8963 0003364 298.9384  60.9897  1.00277399100336,1.00277399,0.0003364,GSO
25049,ASTRA 5A (SIRIUS 2),1997,1448.62,-1.0,-,11.28,Inactive,0,GSO,French Guiana,Sweden,Unknown,Unknown,Unknown,1 25049U 97071A   25103.80198547 -.00000257  00000+0  00000+0 0  9990,2 25049  11.2812  37.2254 0002546  12.7759 197.7936  0.99404408 99859,0.99404408,0.0002546,GSO
25050,INDOSTAR 1,1997,1436.96,-1.0,-,12.47,Inactive,0,GSO,French Guiana,Indonesia,Unknown,Unknown,Unknown,1 25050U 97071B   25103.69864878 -.00000326  00000+0  00000+0 0  9993,2 25050  12.4706  23.1236 0002592 314.0083 220.8224  1.00210357100491,1.00210357,0.0002592,GSO
16860,COSMOS 1763,1986,100.06,-1.0,UNK,74.03,Inactive,0,LEO,Russia,Russia/USSR,Unknown,Unknown,Unknown,1 16860U 86052A   25104.42543371  .00000422  00000+0  14421-3 0  9995,2 16860  74.0312 277.8410 0030136  28.4377 331.8414 14.39114738 32407,14.39114738,0.0030136,LEO
25067,JCSAT-1B,1997,1459.63,-1.0,-,10.72,Inactive,0,GSO,French Guiana,Japan,Unknown,Unknown,Unknown,1 25067U 97075A   25103.57305380 -.00000128  00000+0  00000+0 0  9990,2 25067  10.7186  42.8384 0016820 176.9847  19.8642  0.98655475102599,0.98655475,0.001682,GSO
25068,EQUATOR S,1997,1336.12,-1.0,UNK,6.41,Inactive,0,MEO,French Guiana,Germany,Unknown,Unknown,Unknown,1 25068U 97075B   25103.63174191 -.00000399  00000+0 -20489-2 0  9999,2 25068   6.4108 303.9478 8221800 231.8644  21.9403  1.07774851107833,1.07774851,0.82218,MEO
25071,ASTRA 1G,1997,1454.0,3379.0,-,8.51,Inactive,1,GSO,Kazakhstan,SES,Commercial,Communications,Proton,1 25071U 97076A   25103.87671804 -.00000081  00000+0  00000+0 0  9994,2 25071   8.5135  58.8875 0004936 146.7393 234.4271  0.99036853100158,0.99036853,0.0004936,GSO
8688,COSMOS 803,1976,92.68,-1.0,UNK,65.84,Inactive,0,LEO,Russia,Russia/USSR,Unknown,Unknown,Unknown,1 08688U 76014A   25104.55338308  .00012673  00000+0  19867-3 0  9997,2 08688  65.8391 319.7482 0020701 294.2467  65.6523 15.53755518724502,15.53755518,0.0020701,LEO
41456,SENTINEL-1B,2016,96.26,2300.0,-,98.15,Inactive,1,LEO,French Guiana,ESA,Government,Earth Observation,Soyuz,1 41456U 16025A   25104.55696097  .00006893  00000+0  61804-3 0  9990,2 41456  98.1487 143.2152 0018013 113.6593 246.6520 14.95990295479624,14.95990295,0.0018013,LEO
41457,MICROSCOPE,2016,98.73,-1.0,-,98.25,Inactive,0,LEO,French Guiana,France,Unknown,Unknown,Unknown,1 41457U 16025B   25104.43299787  .00002266  00000+0  49791-3 0  9994,2 41457  98.2541 114.7985 0002026  92.8050 267.3381 14.58499192476202,14.58499192,0.0002026,LEO
16881,COSMOS 1766,1986,93.73,-1.0,UNK,82.49,Inactive,0,LEO,Russia,Russia/USSR,Unknown,Unknown,Unknown,1 16881U 86055A   25103.94160517  .00022066  00000+0  61868-3 0  9999,2 16881  82.4916  88.3989 0006896 297.7476  62.3068 15.36437887 92774,15.36437887,0.0006896,LEO
25077,IRIDIUM 42,1997,100.26,-1.0,-,86.39,Inactive,0,LEO,PRC,USA,Unknown,Unknown,Unknown,1 25077U 97077A   25103.73375142  .00000966  00000+0  32407-3 0  9993,2 25077  86.3911 266.3662 0001765  72.1846 287.9543 14.36279339431945,14.36279339,0.0001765,LEO
